RADARSAT-2              
1 32382U 07061A   19035.87230505  .00000214  00000-0  10000-3 0  9991
2 32382  98.5766  44.7342 0001125  88.2191  30.6398 14.29986692581710